STARLINK-37165          
1 68287U 26055AB  26091.83335647 -.01526396  00000+0 -68947-2 0  9995
2 68287  53.1572 221.1074 0000788  60.4890 336.4897 15.85936877  3353
STARLINK-37016          
1 68288U 26055AC  26091.83335647 -.01519629  00000+0 -68582-2 0  9992
2 68288  53.1569 221.1264 0000925  59.2516 328.7402 15.85940713  3355
STARLINK-37010          
1 68289U 26055AD  26091.83335647 -.01543289  00000+0 -69611-2 0  9996
2 68289  53.1575 221.0983 0000846  57.7797 343.3528 15.85995562  3350
STARLINK-37151          
1 68290U 26055AE  26091.83335647 -.01568777  00000+0 -70590-2 0  9995
2 68290  53.1569 221.0904 0000906  62.0476 343.0419 15.86090059  3352
STRIX-6                 
1 68291U 26056A   26091.84408823  .00005226  00000+0  43890-3 0  9991
2 68291  50.2843 350.5377 0016538 311.4234  48.5293 14.99654927  1818
ELECTRON KICK STAGE R/B 
1 68293U 26056C   26091.40475979  .00090799  00000+0  14234-2 0  9999
2 68293  50.2914 349.1674 0155041  58.1304 303.4645 15.40383024  1806
STARLINK-37107          
1 68294U 26057A   26091.83335647 -.01353435  52740-3 -41315-2 0  9999
2 68294  97.2806 215.2800 0001445  81.9655  75.5878 15.92008322  2889
STARLINK-37147          
1 68295U 26057B   26091.83335647 -.01359093  53189-3 -41331-2 0  9992
2 68295  97.2801 215.2810 0001500  75.1011  85.9646 15.92082464  2875
STARLINK-37142          
1 68296U 26057C   26091.83335647 -.01381070  54906-3 -41555-2 0  9999
2 68296  97.2795 215.2858 0001491  77.5962  95.0320 15.92292557  2765
STARLINK-37115          
1 68297U 26057D   26091.83335647 -.01367627  53878-3 -41319-2 0  9997
2 68297  97.2792 215.2833 0001472  77.5103  91.5008 15.92211161  2768
STARLINK-36355          
1 68298U 26057E   26091.83335647 -.01348028  52424-3 -40855-2 0  9992
2 68298  97.2798 215.2821 0001437  85.5825  79.1432 15.92147753  3032
STARLINK-37118          
1 68299U 26057F   26091.83335647 -.01372426  54342-3 -41022-2 0  9990
2 68299  97.2787 215.2885 0001506  79.5689 101.0638 15.92419853  2876
